{"type":"FeatureCollection", "features": [
{"type":"Feature","geometry":{"type":"Polygon","coordinates":[[[143.1360508430574,-20.71924986008464],[143.1331328816682,-20.72022452534313],[143.1344386417592,-20.71971328276784],[143.1319089886979,-20.72076587626305],[143.1294397566777,-20.72219917176667],[143.1280038528776,-20.7233539194028],[143.126633403351,-20.7246511191609],[143.1256237864224,-20.72575377651697],[143.1248074845512,-20.72719000083934],[143.1236174533781,-20.72927162447591],[143.1227401576269,-20.73128950664498],[143.1221184883178,-20.73340712049114],[143.1219231288789,-20.73552966734772],[143.1219159004653,-20.73762128166608],[143.1222786072395,-20.74009369401061],[143.1227813180306,-20.74229084296934],[143.1238981729018,-20.74448963257089],[143.1248722797392,-20.74636171696338],[143.1261951227204,-20.74799341273798],[143.1278863233852,-20.74960224189221],[143.1295816978329,-20.75082361426785],[143.1312208442306,-20.75174344936369],[143.1330430284879,-20.75266670125047],[143.1348329165671,-20.75357791874629],[143.1367740410179,-20.75384025414511],[143.1383559471766,-20.75429763970226],[143.1396815545767,-20.75440526242157],[143.1411450817274,-20.75443052722254],[143.1427468036353,-20.75444425418529],[143.1443147729701,-20.75419028137174],[143.1458268365701,-20.75384036026946],[143.1475153749213,-20.75343954807013],[143.149787534179,-20.752424248247],[143.151954251206,-20.75185616531218],[143.1538734676346,-20.75121008470225],[143.1551226825936,-20.75060626609037],[143.1566387314427,-20.7497193386698],[143.1581674214815,-20.74864914879576],[143.159474875491,-20.74761521245334],[143.1594979011655,-20.74759097650637],[143.1606351477639,-20.74645663259453],[143.1617187621679,-20.74513545632269],[143.1625701722141,-20.74391041949393],[143.1633257644126,-20.74244134885641],[143.1641114018172,-20.74088738253261],[143.1648013010652,-20.73851609762683],[143.1650051921833,-20.73707531670354],[143.1652337149714,-20.73533301329949],[143.1652233534666,-20.73396619325004],[143.1650349500629,-20.73215713079115],[143.16466370382,-20.73031845268968],[143.1639432592784,-20.72823501256303],[143.1631543083797,-20.72667082426987],[143.1618292123328,-20.72443309451444],[143.1600713838632,-20.72247172059318],[143.1581295651073,-20.72058444454786],[143.1559429934888,-20.71933767085915],[143.1528639515395,-20.71797376140851],[143.1510315160138,-20.71737871871925],[143.149310107093,-20.71700254132387],[143.1474076043366,-20.7167450089679],[143.1456697454626,-20.71667987818707],[143.1438269202776,-20.71676452315799],[143.1414176350106,-20.71718202971697],[143.1399987162778,-20.71758002846839],[143.1384091268517,-20.71810085326424],[143.1360508430574,-20.71924986008464]]]},"properties":{"name":"Richmond Coverage","styleUrl":"#/Users/NyssaCurrin/Library/Application Support/Google Earth/myplaces.kml#style-sky5g"}},
{"type":"Feature","geometry":{"type":"Polygon","coordinates":[[[143.23441,-21.6650059272551],[143.2533799070556,-21.6658709387911],[143.2721678028057,-21.6684576738194],[143.2905934029836,-21.6727413123581],[143.3084798617371,-21.6786807495788],[143.3256554517932,-21.6862189860228],[143.341955198096,-21.6952836689286],[143.3572224499481,-21.7057877797427],[143.3713103771493,-21.7176304615389],[143.3840833762054,-21.7306979787757],[143.3954183733729,-21.7448648005839],[143.4052060121173,-21.7599947976056],[143.4133517134817,-21.775942541318],[143.4197765989014,-21.7925546937735],[143.4244182661402,-21.8096714747875],[143.4272314102723,-21.8271281928125],[143.428188282983,-21.844756825065],[143.4272789848951,-21.862387631922],[143.4245115871541,-21.8798507901939],[143.4199120800962,-21.8969780296085],[143.4135241484746,-21.9136042567179],[143.4054087744185,-21.9295691504678],[143.3956436710244,-21.9447187138559],[143.3843225512086,-21.9589067664447],[143.3715542381776,-21.9719963629959],[143.3574616255589,-21.9838611241467],[143.3421804968702,-21.9943864658564],[143.3258582155614,-22.0034707153006],[143.3086522983178,-22.011026101985],[143.2907288856454,-22.0169796140625],[143.2722611249424,-22.021273711174],[143.2534274822859,-22.0238668865641],[143.23441,-22.0247340727449],[143.2153925177141,-22.0238668865641],[143.1965588750576,-22.021273711174],[143.1780911143546,-22.0169796140625],[143.1601677016822,-22.011026101985],[143.1429617844387,-22.0034707153006],[143.1266395031298,-21.9943864658564],[143.1113583744411,-21.9838611241467],[143.0972657618224,-21.9719963629959],[143.0844974487914,-21.9589067664447],[143.0731763289756,-21.9447187138559],[143.0634112255815,-21.9295691504678],[143.0552958515254,-21.9136042567179],[143.0489079199038,-21.8969780296085],[143.0443084128459,-21.8798507901939],[143.041541015105,-21.862387631922],[143.040631717017,-21.844756825065],[143.0415885897277,-21.8271281928125],[143.0444017338599,-21.8096714747875],[143.0490434010986,-21.7925546937735],[143.0554682865183,-21.775942541318],[143.0636139878827,-21.7599947976056],[143.0734016266271,-21.7448648005839],[143.0847366237946,-21.7306979787757],[143.0975096228507,-21.7176304615389],[143.1115975500519,-21.7057877797427],[143.126864801904,-21.6952836689286],[143.1431645482068,-21.6862189860228],[143.1603401382629,-21.6786807495788],[143.1782265970164,-21.6727413123581],[143.1966521971943,-21.6684576738194],[143.2154400929444,-21.6658709387911],[143.23441,-21.6650059272551]]]},"properties":{"name":"Coralton Coverage Area","styleUrl":"#/Users/NyssaCurrin/Library/Application Support/Google Earth/myplaces.kml#style-sky5g"}},
{"type":"Feature","geometry":{"type":"Polygon","coordinates":[[[143.13892,-21.8755159272551],[143.1579177636793,-21.8763809272362],[143.176733256046,-21.8789676280424],[143.195185935015,-21.883251211002],[143.2130987012848,-21.8891905734148],[143.2302995806627,-21.8967287186872],[143.2466233598352,-21.9057932975502],[143.2619131606007,-21.9162972954369],[143.276021938048,-21.9281398597495],[143.2888138887377,-21.9412072594514],[143.300165755638,-21.9553739681822],[143.3099680173758,-21.9705038609241],[143.3181259502813,-21.9864515131593],[143.3245605527433,-22.0030635904562],[143.329209322529,-22.0201803155217],[143.3320268789736,-22.0376369989644],[143.3329854232899,-22.055265619337],[143.3320750316868,-22.0728964374816],[143.3293037775089,-22.090359629783],[143.3246976802031,-22.1074869246692],[143.3183004805744,-22.1241132265661],[143.3101732434928,-22.1400782115491],[143.3003937909394,-22.1552278791106],[143.2890559700196,-22.1694160448074],[143.2762687622978,-22.1825057590492],[143.2621552425008,-22.1943706379427],[143.2468513962788,-22.204896092912],[143.2305048082723,-22.2139804467692],[143.2132732331933,-22.2215359249954],[143.1953230639672,-22.2274895122144],[143.1768277121682,-22.2317836651692],[143.1579659170108,-22.2343768749509],[143.13892,-22.2352440727449],[143.1198740829892,-22.2343768749509],[143.1010122878318,-22.2317836651692],[143.0825169360328,-22.2274895122144],[143.0645667668067,-22.2215359249954],[143.0473351917277,-22.2139804467692],[143.0309886037212,-22.204896092912],[143.0156847574992,-22.1943706379427],[143.0015712377022,-22.1825057590492],[142.9887840299804,-22.1694160448074],[142.9774462090606,-22.1552278791106],[142.9676667565072,-22.1400782115491],[142.9595395194256,-22.1241132265661],[142.953142319797,-22.1074869246692],[142.9485362224911,-22.090359629783],[142.9457649683132,-22.0728964374816],[142.9448545767102,-22.055265619337],[142.9458131210265,-22.0376369989644],[142.948630677471,-22.0201803155217],[142.9532794472567,-22.0030635904562],[142.9597140497187,-21.9864515131593],[142.9678719826242,-21.9705038609241],[142.977674244362,-21.9553739681822],[142.9890261112623,-21.9412072594514],[143.001818061952,-21.9281398597495],[143.0159268393994,-21.9162972954369],[143.0312166401648,-21.9057932975502],[143.0475404193373,-21.8967287186872],[143.0647412987152,-21.8891905734148],[143.082654064985,-21.883251211002],[143.1011067439541,-21.8789676280424],[143.1199222363207,-21.8763809272362],[143.13892,-21.8755159272551]]]},"properties":{"name":"Hexam Coverage Area","styleUrl":"#/Users/NyssaCurrin/Library/Application Support/Google Earth/myplaces.kml#style-sky5g"}},
{"type":"Feature","geometry":{"type":"Polygon","coordinates":[[[143.03317,-22.0822959272551],[143.0521954568827,-22.0831609158529],[143.0710383839265,-22.0857475829449],[143.0895179826986,-22.0900311111501],[143.1074569018967,-22.0959703998652],[143.1246829218252,-22.1035084553187],[143.1410305922863,-22.1125729316824],[143.156342808894,-22.1230768183165],[143.1704723132803,-22.1349192668876],[143.1832831032389,-22.1479865507968],[143.1946517395409,-22.1621531481258],[143.2044685369678,-22.1772829381324],[143.2126386280218,-22.1932305002445],[143.2190828888109,-22.2098425034943],[143.2237387177432,-22.2269591734379],[143.2265606589153,-22.2444158228078],[143.2275208634226,-22.2620444314735],[143.2266093832631,-22.2796752607353],[143.2238342940253,-22.2971384865593],[143.2192216441503,-22.3142658360926],[143.2128152302152,-22.3308922116671],[143.2046761993853,-22.3468572865302],[143.1948824819188,-22.362007056721],[143.183528058343,-22.3761953338501],[143.1707220676592,-22.3892851640396],[143.1565877646268,-22.4011501589325],[143.141261335826,-22.4116757254852],[143.1248905857607,-22.4207601822102],[143.1076335057331,-22.4283157506239],[143.089656739556,-22.4342694118727],[143.0711339613704,-22.4385636198449],[143.0522441818593,-22.4411568635095],[143.03317,-22.4420240727449],[143.0140958181407,-22.4411568635095],[142.9952060386297,-22.4385636198449],[142.976683260444,-22.4342694118727],[142.9587064942669,-22.4283157506239],[142.9414494142393,-22.4207601822102],[142.9250786641741,-22.4116757254852],[142.9097522353732,-22.4011501589325],[142.8956179323409,-22.3892851640396],[142.8828119416571,-22.3761953338501],[142.8714575180812,-22.362007056721],[142.8616638006147,-22.3468572865302],[142.8535247697849,-22.3308922116671],[142.8471183558497,-22.3142658360926],[142.8425057059748,-22.2971384865593],[142.8397306167369,-22.2796752607353],[142.8388191365775,-22.2620444314735],[142.8397793410847,-22.2444158228078],[142.8426012822568,-22.2269591734379],[142.8472571111892,-22.2098425034943],[142.8537013719782,-22.1932305002445],[142.8618714630323,-22.1772829381324],[142.8716882604591,-22.1621531481258],[142.8830568967612,-22.1479865507968],[142.8958676867197,-22.1349192668876],[142.9099971911061,-22.1230768183165],[142.9253094077138,-22.1125729316824],[142.9416570781748,-22.1035084553187],[142.9588830981034,-22.0959703998652],[142.9768220173015,-22.0900311111501],[142.9953016160736,-22.0857475829449],[143.0141445431173,-22.0831609158529],[143.03317,-22.0822959272551]]]},"properties":{"name":"Rangeland Coverage Area","styleUrl":"#/Users/NyssaCurrin/Library/Application Support/Google Earth/myplaces.kml#style-sky5g"}},
{"type":"Feature","geometry":{"type":"Polygon","coordinates":[[[141.7437991165604,-20.6393563213738],[141.7400099974047,-20.63904910027769],[141.7358321825842,-20.6396381709993],[141.7321387144848,-20.64097198001922],[141.7289969055536,-20.64266855211476],[141.7262614334691,-20.64495633024499],[141.7249403808333,-20.64657817998445],[141.7235506663441,-20.64885999024403],[141.7224764980784,-20.65077002902016],[141.7219533545546,-20.65311656425089],[141.7216680495222,-20.65545800018779],[141.7212208888882,-20.65728264319516],[141.7213195104059,-20.6592511852007],[141.7217289576426,-20.66114419058916],[141.7230036821186,-20.66361512126472],[141.7238813506518,-20.66571766684542],[141.7252196610574,-20.66752867567324],[141.726476888595,-20.66919216975336],[141.7278871777858,-20.67056380445898],[141.7296023732545,-20.67179243875377],[141.7310819739816,-20.67270951494484],[141.7327051683406,-20.67336360176584],[141.7344743920341,-20.67406664638969],[141.7356866722166,-20.67444037813318],[141.7364942350912,-20.67462693030295],[141.7377379871302,-20.67543217664481],[141.7395854258118,-20.67639111163606],[141.7415807645671,-20.677205611653],[141.7435216450161,-20.67773317288929],[141.745409187211,-20.67807012796454],[141.7455111413181,-20.67811785564927],[141.7474997969067,-20.67826460901301],[141.747703806616,-20.67826512620629],[141.7492343063257,-20.67817360946006],[141.7513282140193,-20.67794115692825],[141.7534786246922,-20.67742318388486],[141.7552776252379,-20.67680838916529],[141.7579071411572,-20.67566817069682],[141.7596224617718,-20.67447415533004],[141.7612954912033,-20.67317945900128],[141.7625129480586,-20.67187841586727],[141.7635210276135,-20.6706221983682],[141.7646430523473,-20.66911852529341],[141.7654077686944,-20.66760789438483],[141.7659637214143,-20.66628643400439],[141.7664388661626,-20.66487791596701],[141.7668372388573,-20.66338663693702],[141.7670365442078,-20.6619844988913],[141.7671261793542,-20.66048189667193],[141.7669595440433,-20.65906936259651],[141.7670623578566,-20.6571636347551],[141.7664794548299,-20.65573798714852],[141.7663012456769,-20.65458235937819],[141.7654413249134,-20.65288949602429],[141.764754502441,-20.65159119472043],[141.76386440954,-20.65028351030761],[141.7626637912738,-20.64866369729406],[141.7613164304896,-20.6473360243725],[141.7596437463788,-20.64595815316868],[141.7581096278209,-20.64487965479806],[141.7565965193233,-20.64414498754808],[141.7523370318843,-20.6427831171385],[141.7494784405133,-20.64093401126661],[141.7464676278045,-20.63982918509921],[141.7437991165604,-20.6393563213738]]]},"properties":{"name":"Julia Creek Coverage Area","styleUrl":"#/Users/NyssaCurrin/Library/Application Support/Google Earth/myplaces.kml#style-sky5g"}},
{"type":"Feature","geometry":{"type":"Polygon","coordinates":[[[142.2561696408279,-18.18017322908075],[142.251879680797,-18.18007952494323],[142.2479778397408,-18.18084851769532],[142.2441934900487,-18.18208010390292],[142.2414115249586,-18.1837119407603],[142.2392758920683,-18.1856031435395],[142.2375702625844,-18.18713034475882],[142.2366220893372,-18.18929333203919],[142.2355550158078,-18.19110209720863],[142.2345495977422,-18.19429720215026],[142.2343151582131,-18.19585218742677],[142.2341679520075,-18.19801433664318],[142.2341643481054,-18.19953796053995],[142.2343536606874,-18.20101331582509],[142.2346306439342,-18.20225208038575],[142.2349942485843,-18.20392089704647],[142.2356092701516,-18.20529474248411],[142.2362365682961,-18.2064235458698],[142.2370361968466,-18.20762960336423],[142.2379988422736,-18.2089425546679],[142.2388050339446,-18.21009794938871],[142.2402012782776,-18.21119127286189],[142.2403272086666,-18.21123441643929],[142.2412393291194,-18.21210185594406],[142.2425725254871,-18.21287655929271],[142.2436861675654,-18.21367188290681],[142.2451074539851,-18.21447031770577],[142.2469365469224,-18.2149134361898],[142.2480821958754,-18.21546011397218],[142.2504325079838,-18.21587575177381],[142.2523421241949,-18.21608904216088],[142.2548845680612,-18.21604687513142],[142.2569739816102,-18.21577848495258],[142.2587719146521,-18.2153546130369],[142.2604915555249,-18.21473038816974],[142.2622758101551,-18.21378472991949],[142.2635346962578,-18.21305433254463],[142.2649913553437,-18.21212392858289],[142.2660479200642,-18.21118594709074],[142.2673092156989,-18.21004099234271],[142.2683817065268,-18.20872322597151],[142.2692442261259,-18.2074778921809],[142.2699870494952,-18.20624101338224],[142.2704786579899,-18.20518240188976],[142.271189882362,-18.20363156713521],[142.2714857413299,-18.20227104581663],[142.2717621783008,-18.20098934294104],[142.2720274329439,-18.19944338664248],[142.272149704393,-18.19771061693499],[142.2720219570718,-18.19595861785943],[142.2716610781397,-18.1945709509201],[142.2712625552421,-18.19284973642284],[142.2706751711859,-18.19123354895924],[142.270025589491,-18.18994962814287],[142.2693553024728,-18.18875434779025],[142.2686693755817,-18.18768705341209],[142.2681470081426,-18.1869229464643],[142.2672830226662,-18.18614918829875],[142.2663272557542,-18.18515652101093],[142.2656039329317,-18.18454789903175],[142.2648997939107,-18.18390890124202],[142.264164363535,-18.18335953743038],[142.262561539875,-18.18245296601059],[142.2607714438072,-18.18154517773831],[142.2594224765249,-18.18101273482123],[142.2561696408279,-18.18017322908075]]]},"properties":{"name":"Croydon Coverage Area","styleUrl":"#/Users/NyssaCurrin/Library/Application Support/Google Earth/myplaces.kml#style-sky5g"}},
{"type":"Feature","geometry":{"type":"Polygon","coordinates":[[[141.076646859045,-17.65255175405215],[141.0737332963684,-17.65285161177378],[141.0704772284549,-17.65364153403686],[141.0678447496177,-17.65459978470555],[141.0654426231384,-17.65600686262257],[141.0631221229988,-17.65788936209557],[141.061207685157,-17.66044318476908],[141.0598330376906,-17.66276816674711],[141.0586827406234,-17.66511951650448],[141.0581079427448,-17.66689404232576],[141.0579986474627,-17.66929969120747],[141.0581266731451,-17.67154001909092],[141.0583138769269,-17.67406330293105],[141.0589141224694,-17.67642329447104],[141.0600025162831,-17.67832235441642],[141.0609245806332,-17.68011164172867],[141.0609734211811,-17.68015537317401],[141.0622087986373,-17.68167089540411],[141.0642738511856,-17.68378204842702],[141.0663162969464,-17.68550081356113],[141.0684346348488,-17.6865023854049],[141.0684597605603,-17.68650296609785],[141.0703370905574,-17.68730948075436],[141.0703885909026,-17.68733445996279],[141.072877618603,-17.68802719638966],[141.0749774884408,-17.6883529978267],[141.0750508495408,-17.68835447977456],[141.0767822710179,-17.68843343125098],[141.0786712037066,-17.68841070118789],[141.0807929542297,-17.68810940435035],[141.0822728343288,-17.68767862013589],[141.082297456523,-17.68767893189217],[141.0839931678764,-17.68715152472656],[141.0859979385619,-17.68630638527277],[141.0872814313255,-17.68538787674515],[141.0888994310201,-17.68440293983431],[141.0904565844065,-17.68286596763454],[141.0919078360676,-17.68129888341409],[141.0932047612309,-17.67952086791149],[141.0943436654973,-17.67731264893971],[141.0950407434337,-17.6750938324003],[141.0956463991524,-17.67261215950413],[141.0957281973027,-17.6701729082233],[141.0956427771418,-17.66795256142521],[141.0950430733714,-17.66560198075985],[141.0940732956588,-17.66318338933525],[141.09204380811,-17.65992172017014],[141.0901382310331,-17.65775738111921],[141.0877201449512,-17.65582242004498],[141.0854022585006,-17.65452827876724],[141.0833939955763,-17.65365591620676],[141.0810850665557,-17.65298646084231],[141.0785632239097,-17.65257869856983],[141.076646859045,-17.65255175405215]]]},"properties":{"name":"Normanton Coverage Area","styleUrl":"#/Users/NyssaCurrin/Library/Application Support/Google Earth/myplaces.kml#style-sky5g"}},
{"type":"Feature","geometry":{"type":"Polygon","coordinates":[[[143.03748,-22.3685035927255],[143.0393864255506,-22.3685901910251],[143.0412744982408,-22.3688491522563],[143.0431260416874,-22.3692779834326],[143.0449232307721,-22.3698725562212],[143.0466487630667,-22.3706271466411],[143.0482860252548,-22.3715344901091],[143.0498192529537,-22.3725858513041],[143.0512336824056,-22.3737711081817],[143.052515692581,-22.3750788493349],[143.0536529363303,-22.3764964837667],[143.0546344593188,-22.3780103620228],[143.055450805603,-22.3796059075229],[143.0560941088233,-22.3812677568295],[143.056558168135,-22.3829799075089],[143.0568385081354,-22.3847258721635],[143.0569324222056,-22.3864888371542],[143.0568389988366,-22.3882518244886],[143.0565591306799,-22.3899978553158],[143.0560955062221,-22.3917101134537],[143.0554525841542,-22.3933721073751],[143.0546365506739,-22.3949678290888],[143.0536552601195,-22.3964819083856],[143.0525181595026,-22.3978997609593],[143.051236197657,-22.3992077289724],[143.0498217198754,-22.40039321271],[143.0482883490442,-22.4014447920468],[143.0466508544219,-22.4023523365556],[143.0449250093235,-22.4031071031892],[143.0431274390863,-22.4037018205925],[143.0412754607859,-22.4041307592273],[143.0393869162518,-22.4043897866311],[143.03748,-22.4044764072745],[143.0355730837482,-22.4043897866311],[143.0336845392141,-22.4041307592273],[143.0318325609136,-22.4037018205925],[143.0300349906765,-22.4031071031892],[143.028309145578,-22.4023523365556],[143.0266716509558,-22.4014447920468],[143.0251382801246,-22.40039321271],[143.023723802343,-22.3992077289724],[143.0224418404974,-22.3978997609593],[143.0213047398805,-22.3964819083856],[143.0203234493261,-22.3949678290888],[143.0195074158457,-22.3933721073751],[143.0188644937779,-22.3917101134537],[143.01840086932,-22.3899978553158],[143.0181210011634,-22.3882518244886],[143.0180275777944,-22.3864888371542],[143.0181214918646,-22.3847258721635],[143.018401831865,-22.3829799075089],[143.0188658911767,-22.3812677568295],[143.019509194397,-22.3796059075229],[143.0203255406811,-22.3780103620228],[143.0213070636697,-22.3764964837667],[143.022444307419,-22.3750788493349],[143.0237263175944,-22.3737711081817],[143.0251407470463,-22.3725858513041],[143.0266739747452,-22.3715344901091],[143.0283112369333,-22.3706271466411],[143.0300367692279,-22.3698725562212],[143.0318339583125,-22.3692779834326],[143.0336855017592,-22.3688491522563],[143.0355735744494,-22.3685901910251],[143.03748,-22.3685035927255]]]},"properties":{"name":"Winton Coverage Area","styleUrl":"#/Users/NyssaCurrin/Library/Application Support/Google Earth/myplaces.kml#style-sky5g"}}
]}
